{"fetched_at":"2026-03-30T13:17:50Z","count":15418,"tles":[{"name":"STARLINK-34170","line1":"1 63955U 25099D   26087.66003049  .00020665  00000+0  75827-3 0  9994","line2":"2 63955  42.9968  69.4300 0000406  25.2537 334.8334 15.27584413 50221","category":"Starlink"}]}